OSCAR 7 (AO-7)          
1 07530U 74089B   23249.83458431 -.00000035  00000+0  68348-4 0  9990
2 07530 101.9551 237.0821 0011839 268.1841 209.7284 12.53666637233403
PHASE 3B (AO-10)        
1 14129U 83058B   23249.37175720 -.00000311  00000+0  00000+0 0  9997
2 14129  27.3908  24.0313 6034397 202.1937 113.5112  2.05871216274590
UOSAT 2 (UO-11)         
1 14781U 84021B   23249.72121530  .00001841  00000+0  22079-3 0  9993
2 14781  97.6659 223.5415 0006639 300.7059  59.3502 14.85205271106247
LUSAT (LO-19)           
1 20442U 90005G   23249.42905233  .00000230  00000+0  10040-3 0  9996
2 20442  98.8523 227.7123 0010792 304.1161  55.8998 14.33308408756981
EYESAT A (AO-27)        
1 22825U 93061C   23250.12390997  .00000131  00000+0  68061-4 0  9999
2 22825  98.8343 294.3082 0008399 181.6742 178.4413 14.30340731562278
ITAMSAT (IO-26)         
1 22826U 93061D   23250.10656856  .00000169  00000+0  81962-4 0  9993
2 22826  98.8289 294.1525 0009200 168.0991 192.0410 14.30705888562520
RADIO ROSTO (RS-15)     
1 23439U 94085A   23249.95138252 -.00000043  00000+0 -40310-5 0  9993
2 23439  64.8157 143.4490 0160051 195.8069 163.7824 11.27575438181543
JAS-2 (FO-29)           
1 24278U 96046B   23249.37685554 -.00000013  00000+0  23846-4 0  9992
2 24278  98.5375 216.9008 0349718 206.1657 152.1439 13.53153247335917
TECHSAT 1B (GO-32)      
1 25397U 98043D   23249.87365150  .00000138  00000+0  80077-4 0  9992
2 25397  98.8764 208.0640 0000235 229.1823 130.9335 14.23905201307176
ISS (ZARYA)             
1 25544U 98067A   23250.20929199  .00010849  00000+0  19589-3 0  9999
2 25544  51.6412 282.1975 0005650  40.7284  38.2791 15.50271774414510
PCSAT (NO-44)           
1 26931U 01043C   23249.97716933  .00000244  00000+0  12417-3 0  9991
2 26931  67.0535 345.6289 0007561 260.3169  99.7079 14.30975919145449
SAUDISAT 1C (SO-50)     
1 27607U 02058C   23250.06840013  .00002253  00000+0  32490-3 0  9993
2 27607  64.5574  13.8525 0060462 207.5143 152.2757 14.77569000114531
CUTE-1 (CO-55)          
1 27844U 03031E   23249.96423591  .00000421  00000+0  20698-3 0  9995
2 27844  98.6803 256.0329 0008625 246.2902 113.7372 14.22864458 47395
CUBESAT XI-IV (CO-57)   
1 27848U 03031J   23250.00378631  .00000352  00000+0  17804-3 0  9998
2 27848  98.6839 256.4554 0008467 263.4396  96.5818 14.22363753 47186
MOZHAYETS 4 (RS-22)     
1 27939U 03042A   23250.10624712  .00001554  00000+0  27584-3 0  9997
2 27939  98.2547  37.7450 0011479 234.8112 245.0408 14.68638087 66563
CUBESAT XI-V            
1 28895U 05043F   23249.57655583  .00001979  00000+0  36970-3 0  9991
2 28895  98.1641  21.0764 0016431 171.8878 188.2594 14.65968054952739
CUTE-1.7+APD II (CO-65) 
1 32785U 08021C   23249.71535763  .00004454  00000+0  43391-3 0  9992
2 32785  97.7139 213.9925 0011738 182.8272 177.2883 14.92941057832982
DELFI-C3 (DO-64)        
1 32789U 08021G   23250.03471270  .00119763  00000+0  21373-2 0  9990
2 32789  97.2964 271.6384 0008032 153.7406 206.4254 15.49598300840108
SEEDS II (CO-66)        
1 32791U 08021J   23249.74099754  .00007154  00000+0  61381-3 0  9996
2 32791  97.6644 219.3521 0013641 129.9450 230.2973 14.97721099833861
YUBILEINY (RS-30)       
1 32953U 08025A   23250.05421874  .00000021  00000+0  81690-4 0  9990
2 32953  82.4977 266.1724 0019580  10.0047 350.1419 12.43128615693828
KKS-1 (KISEKI)          
1 33499U 09002H   23250.01802551  .00001533  00000+0  22329-3 0  9995
2 33499  98.1611 143.3507 0008089 334.3841  25.6967 14.77323910786575
SWISSCUBE               
1 35932U 09051B   23250.07245307  .00001225  00000+0  27748-3 0  9997
2 35932  98.5086 122.3333 0008572 109.9277 250.2845 14.57930425741181
BEESAT-1                
1 35933U 09051C   23249.07931757  .00000952  00000+0  21862-3 0  9994
2 35933  98.5015 122.5621 0006648 121.9302 238.2543 14.57810196741072
ITUPSAT1                
1 35935U 09051E   23249.10396616  .00000871  00000+0  20509-3 0  9996
2 35935  98.5114 122.5020 0008841 128.6587 231.5403 14.56845653740742
XIWANG-1 (HOPE-1)       
1 36122U 09072B   23249.86430518 -.00000006  00000+0  97851-4 0  9997
2 36122 100.2463 211.1919 0007998  39.2462 320.9230 13.16386698659544
JUGNU                   
1 37839U 11058B   23249.55163921  .00000480  00000+0  11306-3 0  9992
2 37839  19.9621 349.2635 0018998  36.6763  70.3825 14.13001560615411
SRMSAT                  
1 37841U 11058D   23249.84507872  .00000483  00000+0  11991-3 0  9997
2 37841  19.9723  76.2964 0011813 209.0823 269.9179 14.10936986614357
M-CUBED & EXP-1 PRIME   
1 37855U 11061F   23249.74617985  .00029820  00000+0  82782-3 0  9994
2 37855 101.7106 257.7630 0109904 149.0389 211.7377 15.30951292649029
STRAND-1                
1 39090U 13009E   23248.98934279  .00000371  00000+0  14322-3 0  9999
2 39090  98.3877  80.1327 0009532  30.3499 329.8237 14.35676195551319
BEESAT-3                
1 39135U 13015F   23249.87281932  .00074190  00000+0  12280-2 0  9996
2 39135  64.8548  61.2305 0017555 249.5295 110.3963 15.51589540575007
BEESAT-2                
1 39136U 13015G   23249.92338453  .00052949  00000+0  10275-2 0  9994
2 39136  64.8649  74.2978 0027726 263.3604  96.4380 15.46926665574293
ZACUBE-1 (TSHEPISOSAT)  
1 39417U 13066B   23249.61378570  .00004510  00000+0  51327-3 0  9997
2 39417  97.6927 208.4868 0054993  21.5808 338.7707 14.85595234529283
GOMX-1                  
1 39430U 13066Q   23249.97436131  .00002548  00000+0  44263-3 0  9999
2 39430  97.7673 136.3220 0146294  74.6622 287.0694 14.62160833521480
CUBEBUG-2 (LO-74)       
1 39440U 13066AA  23249.85638088  .00003413  00000+0  43659-3 0  9992
2 39440  97.7768 195.9928 0076104 120.7155 240.1584 14.79958895526235
FUNCUBE-1 (AO-73)       
1 39444U 13066AE  23249.95050390  .00006360  00000+0  69028-3 0  9993
2 39444  97.6784 211.4374 0052539   5.2825 354.8934 14.87467565528380
UWE-3                   
1 39446U 13066AG  23250.10785373  .00004417  00000+0  53399-3 0  9995
2 39446  97.7410 202.3509 0066643  71.5931 289.2513 14.82617031527151
SPROUT                  
1 39770U 14029E   23249.66127738  .00022735  00000+0  15659-2 0  9998
2 39770  97.9933  19.5723 0005237  37.1351 323.0236 15.05857420504401
UNISAT-6                
1 40012U 14033C   23249.82793184  .00003526  00000+0  49161-3 0  9999
2 40012  97.6798  59.9120 0055827 149.9724 210.4708 14.77243839495822
DUCHIFAT-1              
1 40021U 14033M   23249.34779653  .00007087  00000+0  58532-3 0  9999
2 40021  98.0668 216.0173 0012205  13.3817 346.7726 14.99244514501340
QB50P1                  
1 40025U 14033R   23250.09509030  .00005344  00000+0  49687-3 0  9992
2 40025  98.0020 198.3842 0012135  32.1168 328.0789 14.94726750500883
ZDPS 2A                 
1 40901U 15049C   23249.80400341  .00064420  00000+0  11289-2 0  9991
2 40901  97.4402 267.2800 0007720 164.5696 195.5792 15.50335577441851
ZDPS 2B                 
1 40902U 15049D   23250.05632695  .00069200  00000+0  11129-2 0  9994
2 40902  97.4514 266.3494 0007924 161.7331 198.4208 15.52728879441909
KAITUO 1A               
1 40904U 15049F   23250.09332227  .00017341  00000+0  61783-3 0  9999
2 40904  97.4999 256.4110 0008574 238.4541 121.5862 15.28959657440815
2015-049G               
1 40905U 15049G   23250.03877596  .00007807  00000+0  34337-3 0  9998
2 40905  97.5269 252.5986 0011121 256.1235 103.8763 15.22106399440403
XW-2C                   
1 40906U 15049H   23249.97743274  .00014765  00000+0  53296-3 0  9991
2 40906  97.4954 257.5092 0009480 223.6261 136.4230 15.28560979440887
XW-2D                   
1 40907U 15049J   23250.07622477  .00017327  00000+0  58009-3 0  9990
2 40907  97.4931 258.3902 0008728 211.9455 148.1257 15.30984484441009
LILACSAT-2              
1 40908U 15049K   23250.03965432  .00006837  00000+0  31322-3 0  9991
2 40908  97.5285 252.9316 0011577 263.4019  96.5898 15.20751347440236
XW-2E                   
1 40909U 15049L   23249.99894947  .00040592  00000+0  88665-3 0  9995
2 40909  97.4507 265.5463 0008590 165.0247 195.1257 15.44045044441745
XW-2F                   
1 40910U 15049M   23250.03310313  .00040949  00000+0  91663-3 0  9992
2 40910  97.4603 264.8367 0009087 168.9867 191.1581 15.43309574441488
XW-2B                   
1 40911U 15049N   23250.01985773  .00017375  00000+0  58645-3 0  9999
2 40911  97.4909 258.7167 0008665 214.1301 145.9384 15.30720312440879
KAITUO 1B               
1 40912U 15049P   23250.00082781  .00055324  00000+0  92634-3 0  9998
2 40912  97.4117 269.8223 0010401 131.3985 228.8163 15.51633292442260
LAPAN-A2                
1 40931U 15052B   23249.44300447  .00001282  00000+0  87571-4 0  9990
2 40931   5.9987 226.4454 0013006   3.9263 356.0966 14.77341001429274
E-ST@R-II               
1 41459U 16025D   23250.02633717  .00038988  00000+0  97882-3 0  9990
2 41459  98.1773  99.9263 0096487 172.4132 187.8596 15.35152324405433
AIST-2D (RS-48)         
1 41465U 16026B   23250.06541014  .00035805  00000+0  40355-3 0  9998
2 41465  96.9833 120.1127 0003828 294.2411  65.8447 15.62450095412736
NUSAT-1 (FRESCO)        
1 41557U 16033B   23249.79172351  .00155190  00000+0  10049-2 0  9996
2 41557  97.3868   1.7895 0006170 210.2795 149.8114 15.75570399406408
BEESAT-4                
1 41619U 16040W   23250.08792945  .00441437  74497-4  15333-2 0  9993
2 41619  97.1390 301.6265 0005545 221.6509 138.4342 15.89376135389732
CAS-2T & KS-1Q          
1 41847U 16066G   23249.96115470  .00000942  00000+0  14998-3 0  9994
2 41847  98.4977 318.1106 0357871 312.1661  44.9635 14.39982092358577
ZHUHAI-1 02 (CAS-4B)    
1 42759U 17034B   23249.77309671  .00009361  00000+0  45059-3 0  9996
2 42759  43.0167  21.6501 0012315 270.6262  89.3176 15.18877723344039
ZHUHAI-1 01 (CAS-4A)    
1 42761U 17034D   23250.05197217  .00011141  00000+0  53343-3 0  9997
2 42761  43.0162  18.6172 0013159 273.1610  86.7733 15.18905262344084
MAX VALIER SAT          
1 42778U 17036P   23249.86028558  .00029372  00000+0  66580-3 0  9997
2 42778  97.1473 282.9722 0008957 151.0481 209.1265 15.43001548345303
